[{"OBJECT_NAME":"STARLINK-30182","OBJECT_ID":"2023-102J","EPOCH":"2026-03-09T22:00:01.999584","MEAN_MOTION":15.17692309,"ECCENTRICITY":0.00017334,"INCLINATION":43.0001,"RA_OF_ASC_NODE":246.596,"ARG_OF_PERICENTER":271.5021,"MEAN_ANOMALY":59.9842,"EPHEMERIS_TYPE":0,"CLASSIFICATION_TYPE":"U","NORAD_CAT_ID":57412,"ELEMENT_SET_NO":999,"REV_AT_EPOCH":577,"BSTAR":0.0061388079,"MEAN_MOTION_DOT":0.00128052,"MEAN_MOTION_DDOT":0},{"OBJECT_NAME":"LEMUR-2-STAS-GORBUK","OBJECT_ID":"2025-276W","EPOCH":"2026-03-09T17:09:04.423392","MEAN_MOTION":15.18201916,"ECCENTRICITY":0.00048292,"INCLINATION":97.4319,"RA_OF_ASC_NODE":143.9565,"ARG_OF_PERICENTER":1.4677,"MEAN_ANOMALY":358.657,"EPHEMERIS_TYPE":0,"CLASSIFICATION_TYPE":"U","NORAD_CAT_ID":66686,"ELEMENT_SET_NO":999,"REV_AT_EPOCH":1531,"BSTAR":0.00034029454,"MEAN_MOTION_DOT":6.895e-5,"MEAN_MOTION_DDOT":0}]
